{
  "norad_id": 45710,
  "name": "STARLINK-1423",
  "history": [
    {
      "epoch": "2026-03-28T21:03:29.950272Z",
      "apogee_km": 403.25414066400845,
      "perigee_km": 393.77089732712557,
      "latitude_deg": -1.8073811226112924e-06,
      "longitude_deg": 147.12753547854138,
      "height_km": 404.06433298700625,
      "semi_major_axis_km": 6776.649518995567,
      "eccentricity": 0.0006997,
      "inclination_deg": 53.0496,
      "raan_deg": 289.2939,
      "arg_perigee_deg": 191.1209,
      "mean_anomaly_deg": 168.9648,
      "mean_motion_rev_day": 15.56253082
    }
  ]
}